{"fetched_at":"2026-03-29T16:36:15Z","count":15609,"tles":[{"name":"STARLINK-11384 [DTC]","line1":"1 62088U 24220A   26087.85806971  .00286303  00000+0  21566-2 0  9994","line2":"2 62088  42.9992 287.9099 0001307 266.9600  93.1118 15.70863887 78062","category":"Starlink"}]}